[{"OBJECT_NAME":"DAMPE","OBJECT_ID":"2015-078A","EPOCH":"2026-03-09T23:55:00.527232","MEAN_MOTION":15.30502084,"ECCENTRICITY":0.00138005,"INCLINATION":97.4588,"RA_OF_ASC_NODE":73.9866,"ARG_OF_PERICENTER":70.6942,"MEAN_ANOMALY":289.579,"EPHEMERIS_TYPE":0,"CLASSIFICATION_TYPE":"U","NORAD_CAT_ID":41173,"ELEMENT_SET_NO":999,"REV_AT_EPOCH":56937,"BSTAR":9.1158173e-5,"MEAN_MOTION_DOT":2.617e-5,"MEAN_MOTION_DDOT":0},{"OBJECT_NAME":"STARLINK-31654","OBJECT_ID":"2024-098A","EPOCH":"2026-03-09T21:30:44.538912","MEAN_MOTION":15.27576821,"ECCENTRICITY":9.601e-5,"INCLINATION":43.0009,"RA_OF_ASC_NODE":269.4004,"ARG_OF_PERICENTER":275.2408,"MEAN_ANOMALY":84.8334,"EPHEMERIS_TYPE":0,"CLASSIFICATION_TYPE":"U","NORAD_CAT_ID":59858,"ELEMENT_SET_NO":999,"REV_AT_EPOCH":10195,"BSTAR":5.8677594e-5,"MEAN_MOTION_DOT":1.353e-5,"MEAN_MOTION_DDOT":0}]
